$$SOE
2460714.500000000, A.D. 2025-Feb-08 00:00:00.0000, 7.703520229484758E+07, -4.256765011847665E+08, 2.505535936276650E+07,
2460721.500000000, A.D. 2025-Feb-15 00:00:00.0000, 8.671555696169612E+07, -4.221711317327390E+08, 2.540076876807389E+07,
2460728.500000000, A.D. 2025-Feb-22 00:00:00.0000, 9.634359096658882E+07, -4.184111565896359E+08, 2.573085471302514E+07,
2460735.500000000, A.D. 2025-Mar-01 00:00:00.0000, 1.059128460543188E+08, -4.143960121940105E+08, 2.604524376964954E+07,
2460742.500000000, A.D. 2025-Mar-08 00:00:00.0000, 1.154167516587297E+08, -4.101252677383568E+08, 2.634356281873743E+07,
2460749.500000000, A.D. 2025-Mar-15 00:00:00.0000, 1.248486247150549E+08, -4.055986302271478E+08, 2.662543953573093E+07,
2460756.500000000, A.D. 2025-Mar-22 00:00:00.0000, 1.342016675232817E+08, -4.008159512370511E+08, 2.689050299312951E+07,
2460763.500000000, A.D. 2025-Mar-29 00:00:00.0000, 1.434689672662422E+08, -3.957772362211570E+08, 2.713838398338945E+07,
2460770.500000000, A.D. 2025-Apr-05 00:00:00.0000, 1.526434975359512E+08, -3.904826532194293E+08, 2.736871529019997E+07,
2460777.500000000, A.D. 2025-Apr-12 00:00:00.0000, 1.617181199714395E+08, -3.849325408707561E+08, 2.758113209464264E+07,
2460784.500000000, A.D. 2025-Apr-19 00:00:00.0000, 1.706855858514000E+08, -3.791274166049846E+08, 2.777527246267024E+07,
2460791.500000000, A.D. 2025-Apr-26 00:00:00.0000, 1.795385379454633E+08, -3.730679852128915E+08, 2.795077787368305E+07,
2460798.500000000, A.D. 2025-May-03 00:00:00.0000, 1.882695127714177E+08, -3.667551477677047E+08, 2.810729378265074E+07,
2460805.500000000, A.D. 2025-May-10 00:00:00.0000, 1.968709433219280E+08, -3.601900108797485E+08, 2.824447021510714E+07,
2460812.500000000, A.D. 2025-May-17 00:00:00.0000, 2.053351623340277E+08, -3.533738963125409E+08, 2.836196238945417E+07,
2460819.500000000, A.D. 2025-May-24 00:00:00.0000, 2.136544063137290E+08, -3.463083509995920E+08, 2.845943134745324E+07,
2460826.500000000, A.D. 2025-May-31 00:00:00.0000, 2.218208207729907E+08, -3.389951571338066E+08, 2.853654458156730E+07,
2460833.500000000, A.D. 2025-Jun-07 00:00:00.0000, 2.298264663168943E+08, -3.314363411045908E+08, 2.859297679584841E+07,
2460840.500000000, A.D. 2025-Jun-14 00:00:00.0000, 2.376633232538539E+08, -3.236341819231412E+08, 2.862841096332438E+07,
2460847.500000000, A.D. 2025-Jun-21 00:00:00.0000, 2.453232959839583E+08, -3.155912223725889E+08, 2.864253930044304E+07,
2460854.500000000, A.D. 2025-Jun-28 00:00:00.0000, 2.527982203364204E+08, -3.073102810789744E+08, 2.863506401544273E+07,
2460861.500000000, A.D. 2025-Jul-05 00:00:00.0000, 2.600798723853988E+08, -2.987944633067002E+08, 2.860569814647777E+07,
2460868.500000000, A.D. 2025-Jul-12 00:00:00.0000, 2.671599775985206E+08, -2.900471712422560E+08, 2.855416653388026E+07,
2460875.500000000, A.D. 2025-Jul-19 00:00:00.0000, 2.740302205502181E+08, -2.810721142956216E+08, 2.848020686296327E+07,
2460882.500000000, A.D. 2025-Jul-26 00:00:00.0000, 2.806822554489416E+08, -2.718733194242229E+08, 2.838357075366987E+07,
2460889.500000000, A.D. 2025-Aug-02 00:00:00.0000, 2.871077175793076E+08, -2.624551413989812E+08, 2.826402489220060E+07,
2460896.500000000, A.D. 2025-Aug-09 00:00:00.0000, 2.932982357145832E+08, -2.528222729606290E+08, 2.812135219972126E+07,
2460903.500000000, A.D. 2025-Aug-16 00:00:00.0000, 2.992454456044526E+08, -2.429797548547567E+08, 2.795535302337442E+07,
2460910.500000000, A.D. 2025-Aug-23 00:00:00.0000, 3.049410048557656E+08, -2.329329856458747E+08, 2.776584632089167E+07,
2460917.500000000, A.D. 2025-Aug-30 00:00:00.0000, 3.103766095588729E+08, -2.226877305072955E+08, 2.755267086396796E+07,
2460924.500000000, A.D. 2025-Sep-06 00:00:00.0000, 3.155440112616003E+08, -2.122501278946091E+08, 2.731568666946768E+07,
2460931.500000000, A.D. 2025-Sep-13 00:00:00.0000, 3.204350326316067E+08, -2.016266964888787E+08, 2.705477660505412E+07,
2460938.500000000, A.D. 2025-Sep-20 00:00:00.0000, 3.250415850824986E+08, -1.908243439489906E+08, 2.676984772953703E+07,
2460945.500000000, A.D. 2025-Sep-27 00:00:00.0000, 3.293556894178405E+08, -1.798503742512315E+08, 2.646083251973844E+07,
2460952.500000000, A.D. 2025-Oct-04 00:00:00.0000, 3.333694974633765E+08, -1.687124929639043E+08, 2.612769020719510E+07,
2460959.500000000, A.D. 2025-Oct-11 00:00:00.0000, 3.370753142889933E+08, -1.574188112832056E+08, 2.577040817517149E+07,
2460966.500000000, A.D. 2025-Oct-18 00:00:00.0000, 3.404656212667237E+08, -1.459778489838307E+08, 2.538900335969766E+07,
2460973.500000000, A.D. 2025-Oct-25 00:00:00.0000, 3.435331000541748E+08, -1.343985361492656E+08, 2.498352363393081E+07,
2460980.500000000, A.D. 2025-Nov-01 00:00:00.0000, 3.462706574793658E+08, -1.226902135407506E+08, 2.455404916385077E+07,
2460987.500000000, A.D. 2025-Nov-08 00:00:00.0000, 3.486714512837442E+08, -1.108626315112193E+08, 2.410069371908188E+07,
2460994.500000000, A.D. 2025-Nov-15 00:00:00.0000, 3.507289167771292E+08, -9.892594739956382E+07, 2.362360590892652E+07,
2461001.500000000, A.D. 2025-Nov-22 00:00:00.0000, 3.524367946956128E+08, -8.689072106354140E+07, 2.312297031195850E+07,
2461008.500000000, A.D. 2025-Nov-29 00:00:00.0000, 3.537891599842117E+08, -7.476790729769440E+07, 2.259900859341894E+07,
2461015.500000000, A.D. 2025-Dec-06 00:00:00.0000, 3.547804490911682E+08, -6.256884516447598E+07, 2.205198079640572E+07,
2461022.500000000, A.D. 2025-Dec-13 00:00:00.0000, 3.554054860522504E+08, -5.030524751446085E+07, 2.148218647851333E+07,
2461029.500000000, A.D. 2025-Dec-20 00:00:00.0000, 3.556595106812603E+08, -3.798918958616782E+07, 2.088996544258172E+07,
2461036.500000000, A.D. 2025-Dec-27 00:00:00.0000, 3.555382076031561E+08, -2.563309401954519E+07, 2.027569835784798E+07,
2461043.500000000, A.D. 2026-Jan-03 00:00:00.0000, 3.550377344692404E+08, -1.324971284166396E+07, 1.963980734170428E+07,
2461050.500000000, A.D. 2026-Jan-10 00:00:00.0000, 3.541547492498338E+08, -8.521070658056056E+05, 1.898275642339880E+07,
2461057.500000000, A.D. 2026-Jan-17 00:00:00.0000, 3.528864366111131E+08, 1.154637602154383E+07, 1.830505184814423E+07,
2461064.500000000, A.D. 2026-Jan-24 00:00:00.0000, 3.512305332192759E+08, 2.393212790289014E+07, 1.760724220433681E+07,
2461071.500000000, A.D. 2026-Jan-31 00:00:00.0000, 3.491853517548255E+08, 3.629130616356383E+07, 1.688991836014667E+07,
2461078.500000000, A.D. 2026-Feb-07 00:00:00.0000, 3.467498034554316E+08, 4.860986400297883E+07, 1.615371318944308E+07,
2461085.500000000, A.D. 2026-Feb-14 00:00:00.0000, 3.439234191974611E+08, 6.087358182146727E+07, 1.539930105403643E+07,
2461092.500000000, A.D. 2026-Feb-21 00:00:00.0000, 3.407063692598311E+08, 7.306810134200549E+07, 1.462739704599580E+07,
2461099.500000000, A.D. 2026-Feb-28 00:00:00.0000, 3.370994804442428E+08, 8.517896327614832E+07, 1.383875617775021E+07,
2461106.500000000, A.D. 2026-Mar-07 00:00:00.0000, 3.331042482694936E+08, 9.719164641190732E+07, 1.303417254637945E+07,
2461113.500000000, A.D. 2026-Mar-14 00:00:00.0000, 3.287228468035045E+08, 1.090916055835549E+08, 1.221447802437694E+07,
2461120.500000000, A.D. 2026-Mar-21 00:00:00.0000, 3.239581377109583E+08, 1.208643111911091E+08, 1.138054054926594E+07,
2461127.500000000, A.D. 2026-Mar-28 00:00:00.0000, 3.188136763296295E+08, 1.324952910513975E+08, 1.053326228414492E+07,
2461134.500000000, A.D. 2026-Apr-04 00:00:00.0000, 3.132937140306602E+08, 1.439701733459621E+08, 9.673577633369476E+06,
2461141.500000000, A.D. 2026-Apr-11 00:00:00.0000, 3.074031970291124E+08, 1.552747300124606E+08, 8.802451068995073E+06,
2461148.500000000, A.D. 2026-Apr-18 00:00:00.0000, 3.011477617268856E+08, 1.663949202590352E+08, 7.920874764563918E+06,
2461155.500000000, A.D. 2026-Apr-25 00:00:00.0000, 2.945337265873060E+08, 1.773169338888788E+08, 7.029866046598382E+06,
2461162.500000000, A.D. 2026-May-02 00:00:00.0000, 2.875680805591865E+08, 1.880272340710660E+08, 6.130464673958376E+06,
2461169.500000000, A.D. 2026-May-09 00:00:00.0000, 2.802584681992902E+08, 1.985125991559787E+08, 5.223729945864603E+06,
2461176.500000000, A.D. 2026-May-16 00:00:00.0000, 2.726131719354803E+08, 2.087601633410002E+08, 4.310737634819552E+06,
2461183.500000000, A.D. 2026-May-23 00:00:00.0000, 2.646410916239527E+08, 2.187574568794763E+08, 3.392576843987897E+06,
2461190.500000000, A.D. 2026-May-30 00:00:00.0000, 2.563517194529240E+08, 2.284924458348095E+08, 2.470347028406382E+06,
2461197.500000000, A.D. 2026-Jun-06 00:00:00.0000, 2.477551100479236E+08, 2.379535678165879E+08, 1.545154966712758E+06,
2461204.500000000, A.D. 2026-Jun-13 00:00:00.0000, 2.388618496608531E+08, 2.471297636254844E+08, 6.181113878474981E+05,
2461211.500000000, A.D. 2026-Jun-20 00:00:00.0000, 2.296830241788052E+08, 2.560105074781596E+08, -3.096724381665438E+05,
2461218.500000000, A.D. 2026-Jun-27 00:00:00.0000, 2.202301845145980E+08, 2.645858352503021E+08, -1.237087992583200E+06,
2461225.500000000, A.D. 2026-Jul-04 00:00:00.0000, 2.105153096644289E+08, 2.728463697753420E+08, -2.163032722250164E+06,
2461232.500000000, A.D. 2026-Jul-11 00:00:00.0000, 2.005507679908151E+08, 2.807833429137496E+08, -3.086413186342359E+06,
2461239.500000000, A.D. 2026-Jul-18 00:00:00.0000, 1.903492771406832E+08, 2.883886143015098E+08, -4.006148119440705E+06,
2461246.500000000, A.D. 2026-Jul-25 00:00:00.0000, 1.799238629480953E+08, 2.956546867005563E+08, -4.921171391877770E+06,
2461253.500000000, A.D. 2026-Aug-01 00:00:00.0000, 1.692878176976670E+08, 3.025747178607473E+08, -5.830434856213510E+06,
2461260.500000000, A.D. 2026-Aug-08 00:00:00.0000, 1.584546582896955E+08, 3.091425288529901E+08, -6.732911084839717E+06,
2461267.500000000, A.D. 2026-Aug-15 00:00:00.0000, 1.474380850429746E+08, 3.153526093568881E+08, -7.627595984588087E+06,
2461274.500000000, A.D. 2026-Aug-22 00:00:00.0000, 1.362519406869391E+08, 3.212001211887065E+08, -8.513511106034800E+06,
2461281.500000000, A.D. 2026-Aug-29 00:00:00.0000, 1.249101675462916E+08, 3.266808987853155E+08, -9.389705538424104E+06,
$$EOE